[{"OBJECT_NAME":"STARLINK-1152","OBJECT_ID":"2020-006BE","EPOCH":"2026-03-09T14:21:13.159008","MEAN_MOTION":15.38522546,"ECCENTRICITY":0.0003727,"INCLINATION":53.0397,"RA_OF_ASC_NODE":206.9193,"ARG_OF_PERICENTER":207.5385,"MEAN_ANOMALY":152.5421,"EPHEMERIS_TYPE":0,"CLASSIFICATION_TYPE":"U","NORAD_CAT_ID":45096,"ELEMENT_SET_NO":999,"REV_AT_EPOCH":33757,"BSTAR":0.0020481,"MEAN_MOTION_DOT":0.00079483,"MEAN_MOTION_DDOT":0},{"OBJECT_NAME":"STARLINK-1821","OBJECT_ID":"2020-073BA","EPOCH":"2026-03-09T17:31:05.033568","MEAN_MOTION":15.37970474,"ECCENTRICITY":0.00041483,"INCLINATION":53.0488,"RA_OF_ASC_NODE":226.3874,"ARG_OF_PERICENTER":156.9798,"MEAN_ANOMALY":203.1391,"EPHEMERIS_TYPE":0,"CLASSIFICATION_TYPE":"U","NORAD_CAT_ID":46718,"ELEMENT_SET_NO":999,"REV_AT_EPOCH":29735,"BSTAR":0.0021811338,"MEAN_MOTION_DOT":0.00083201,"MEAN_MOTION_DDOT":0}]
